ONEWEB-0012             
1 44057U 19010A   24177.58605776 -.00000001  00000+0 -35637-4 0  9996
2 44057  87.9098  12.4583 0002672  82.9278 277.2157 13.16594414256618
ONEWEB-0010             
1 44058U 19010B   24177.61138397  .00000081  00000+0  17860-3 0  9994
2 44058  87.9100  12.4327 0002068  69.8988 290.2365 13.16594995256665
ONEWEB-0008             
1 44059U 19010C   24177.94070566  .00000009  00000+0 -95381-5 0  9991
2 44059  87.9101  12.3682 0001705  96.8177 263.3148 13.16595131256828
ONEWEB-0007             
1 44060U 19010D   24177.63105048  .00000110  00000+0  25743-3 0  9998
2 44060  87.9040  42.7957 0002240  80.2315 279.9068 13.15549867256503
ONEWEB-0006             
1 44061U 19010E   24177.71105994  .00000019  00000+0  16476-4 0  9990
2 44061  87.9031  42.7623 0002092  76.9081 283.2283 13.15550297256563
ONEWEB-0011             
1 44062U 19010F   24177.68096083  .00000131  00000+0  31308-3 0  9990
2 44062  87.9030  42.7694 0001794  74.5246 285.6082 13.15550134256558
ONEWEB-0013             
1 45131U 20008A   24177.52717824  .00000109  00000+0  28033-3 0  9999
2 45131  87.8616 197.9591 0002829 102.9447 257.1996 13.09375942211625
ONEWEB-0017             
1 45132U 20008B   24177.95584004 -.00000630  00000+0 -18413-2 0  9990
2 45132  87.8935 179.6836 0002018  79.3470 280.7884 13.10371312213496
